NORAD_CAT_ID,OBJECT_NAME,OBJECT_TYPE,EPOCH,MEAN_MOTION,ECCENTRICITY,INCLINATION,RA_OF_ASC_NODE,ARG_OF_PERICENTER,MEAN_ANOMALY,BSTAR,MEAN_MOTION_DOT,MEAN_MOTION_DDOT,TLE_LINE0,TLE_LINE1,TLE_LINE2,SEMIMAJOR_AXIS,PERIOD,APOGEE,PERIGEE,DECAYED
51962.0,STARLINK-3697,PAYLOAD,2024-01-30 19:20:37,15.06396309,0.0001273,53.0541,238.0749,96.7308,263.3826,6.32e-05,6.6e-06,0.0,0 STARLINK-3697,1 51962U 22025G   24030.80599153  .00000660  00000-0  63200-4 0  9990,2 51962  53.0541 238.0749 0001273  96.7308 263.3826 15.06396309105099,6925.36,95.592,548.106,546.343,0.0
51962.0,STARLINK-3697,PAYLOAD,2024-01-31 12:51:33,15.06394694,0.000147,53.0547,234.7999,104.9243,255.1909,3.3206e-05,2.13e-06,0.0,0 STARLINK-3697,1 51962U 22025G   24031.53581001  .00000213  00000-0  33206-4 0  9991,2 51962  53.0547 234.7999 0001470 104.9243 255.1909 15.06394694106316,6925.365,95.592,548.248,546.212,0.0
51962.0,STARLINK-3697,PAYLOAD,2024-01-31 22:24:48,15.06395645,0.0001355,53.0541,233.0134,95.8942,264.2201,3.6255e-05,2.59e-06,0.0,0 STARLINK-3697,1 51962U 22025G   24031.93389113  .00000259  00000-0  36255-4 0  9992,2 51962  53.0541 233.0134 0001355  95.8942 264.2201 15.06395645105265,6925.362,95.592,548.165,546.289,0.0
51962.0,STARLINK-3697,PAYLOAD,2024-02-01 00:00:20,15.06395424,0.0001354,53.0542,232.7158,94.9109,265.2035,3.2358e-05,2.01e-06,0.0,0 STARLINK-3697,1 51962U 22025G   24032.00023830  .00000201  00000-0  32358-4 0  9999,2 51962  53.0542 232.7158 0001354  94.9109 265.2035 15.06395424105274,6925.363,95.592,548.165,546.29,0.0
51962.0,STARLINK-3697,PAYLOAD,2024-02-02 12:37:44,15.06398895,0.0001288,53.0542,225.866,90.9254,269.1883,9.7711e-05,1.174e-05,0.0,0 STARLINK-3697,1 51962U 22025G   24033.52621227  .00001174  00000-0  97711-4 0  9995,2 51962  53.0542 225.8660 0001288  90.9254 269.1883 15.06398895106616,6925.352,95.592,548.109,546.325,0.0
51962.0,STARLINK-3697,PAYLOAD,2024-02-02 17:24:21,15.06400721,0.0001097,53.0541,224.9723,94.7776,265.3338,8.419e-05,9.73e-06,0.0,0 STARLINK-3697,1 51962U 22025G   24033.72525140  .00000973  00000-0  84190-4 0  9997,2 51962  53.0541 224.9723 0001097  94.7776 265.3338 15.06400721105539,6925.346,95.592,547.971,546.452,0.0
51962.0,STARLINK-3697,PAYLOAD,2024-02-03 12:30:50,15.06400373,0.0001175,53.0551,221.3999,79.878,280.2341,5.7221e-05,5.71e-06,0.0,0 STARLINK-3697,1 51962U 22025G   24034.52141436  .00000571  00000-0  57221-4 0  9997,2 51962  53.0551 221.3999 0001175  79.8780 280.2341 15.06400373105658,6925.347,95.592,548.026,546.399,0.0
51962.0,STARLINK-3697,PAYLOAD,2024-02-03 18:52:59,15.0640064,0.0001121,53.055,220.2077,85.5655,274.5462,5.6134e-05,5.55e-06,0.0,0 STARLINK-3697,1 51962U 22025G   24034.78680093  .00000555  00000-0  56134-4 0  9996,2 51962  53.0550 220.2077 0001121  85.5655 274.5462 15.06400640106803,6925.347,95.592,547.988,546.435,0.0
51962.0,STARLINK-3697,PAYLOAD,2024-02-04 12:23:55,15.06397304,0.0001321,53.0537,216.9304,89.9798,270.1342,2.1212e-05,3.5e-07,0.0,0 STARLINK-3697,1 51962U 22025G   24035.51661910  .00000035  00000-0  21212-4 0  9997,2 51962  53.0537 216.9304 0001321  89.9798 270.1342 15.06397304105801,6925.357,95.592,548.137,546.307,0.0
51962.0,STARLINK-3697,PAYLOAD,2024-02-04 21:57:09,15.06399803,0.0001292,53.0539,215.1427,89.8322,270.2815,3.2632e-05,2.05e-06,0.0,0 STARLINK-3697,1 51962U 22025G   24035.91469772  .00000205  00000-0  32632-4 0  9990,2 51962  53.0539 215.1427 0001292  89.8322 270.2815 15.06399803105867,6925.349,95.592,548.109,546.319,0.0
51962.0,STARLINK-3697,PAYLOAD,2024-02-05 12:17:01,15.06392611,0.0001319,53.0536,212.461,91.6152,268.4988,-3.1046e-06,-3.28e-06,0.0,0 STARLINK-3697,1 51962U 22025G   24036.51182634 -.00000328  00000-0 -31046-5 0  9993,2 51962  53.0536 212.4610 0001319  91.6152 268.4988 15.06392611107064,6925.371,95.593,548.15,546.323,0.0
51962.0,STARLINK-3697,PAYLOAD,2024-02-05 17:03:38,15.06393582,0.0001341,53.0545,211.5694,90.6017,269.5126,5.5864e-06,-1.98e-06,0.0,0 STARLINK-3697,1 51962U 22025G   24036.71086684 -.00000198  00000-0  55864-5 0  9991,2 51962  53.0545 211.5694 0001341  90.6017 269.5126 15.06393582105983,6925.368,95.593,548.162,546.305,0.0
51962.0,STARLINK-3697,PAYLOAD,2024-02-06 12:10:07,15.06395765,0.0001329,53.0547,207.9919,88.8138,271.3003,4.4124e-05,3.76e-06,0.0,0 STARLINK-3697,1 51962U 22025G   24037.50702866  .00000376  00000-0  44124-4 0  9999,2 51962  53.0547 207.9919 0001329  88.8138 271.3003 15.06395765106108,6925.362,95.592,548.147,546.306,0.0
51962.0,STARLINK-3697,PAYLOAD,2024-02-06 18:32:16,15.06400582,0.0001317,53.0547,206.8005,89.8843,270.2297,8.1211e-05,9.28e-06,0.0,0 STARLINK-3697,1 51962U 22025G   24037.77241198  .00000928  00000-0  81211-4 0  9995,2 51962  53.0547 206.8005 0001317  89.8843 270.2297 15.06400582107257,6925.347,95.592,548.124,546.3,0.0
51962.0,STARLINK-3697,PAYLOAD,2024-02-07 18:25:22,15.0639958,0.0001311,53.0549,202.3365,92.7083,267.4056,0.00010672,1.308e-05,0.0,0 STARLINK-3697,1 51962U 22025G   24038.76761647  .00001308  00000-0  10672-3 0  9996,2 51962  53.0549 202.3365 0001311  92.7083 267.4056 15.06399580106291,6925.35,95.592,548.123,546.307,0.0
51962.0,STARLINK-3697,PAYLOAD,2024-02-08 03:58:36,15.06397512,0.000135,53.055,200.5476,83.9269,276.1874,7.8475e-05,8.88e-06,0.0,0 STARLINK-3697,1 51962U 22025G   24039.16569980  .00000888  00000-0  78475-4 0  9995,2 51962  53.0550 200.5476 0001350  83.9269 276.1874 15.06397512107465,6925.356,95.592,548.156,546.286,0.0
51962.0,STARLINK-3697,PAYLOAD,2024-02-08 10:20:46,15.06399792,0.0001366,53.0548,199.3583,80.5256,279.5888,1.9007e-05,2e-08,0.0,0 STARLINK-3697,1 51962U 22025G   24039.43108858  .00000002  00000-0  19007-4 0  9992,2 51962  53.0548 199.3583 0001366  80.5256 279.5888 15.06399792106397,6925.349,95.592,548.16,546.268,0.0
51962.0,STARLINK-3697,PAYLOAD,2024-02-08 16:42:55,15.0640122,0.0001403,53.0551,198.1671,80.1102,280.0046,2.8191e-05,1.38e-06,0.0,0 STARLINK-3697,1 51962U 22025G   24039.69647430  .00000138  00000-0  28191-4 0  9998,2 51962  53.0551 198.1671 0001403  80.1102 280.0046 15.06401220106432,6925.345,95.592,548.181,546.238,0.0
51962.0,STARLINK-3697,PAYLOAD,2024-02-09 10:13:51,15.06397626,0.0001584,53.0557,194.8926,75.7339,284.3826,2.3507e-05,6.9e-07,0.0,0 STARLINK-3697,1 51962U 22025G   24040.42629252  .00000069  00000-0  23507-4 0  9992,2 51962  53.0557 194.8926 0001584  75.7339 284.3826 15.06397626107658,6925.356,95.592,548.318,546.124,0.0
51962.0,STARLINK-3697,PAYLOAD,2024-02-10 13:18:01,15.06398522,0.0001549,53.0553,189.8287,77.2024,282.9138,6.4818e-05,6.84e-06,0.0,0 STARLINK-3697,1 51962U 22025G   24041.55418757  .00000684  00000-0  64818-4 0  9996,2 51962  53.0553 189.8287 0001549  77.2024 282.9138 15.06398522106719,6925.353,95.592,548.291,546.145,0.0
51962.0,STARLINK-3697,PAYLOAD,2024-02-10 19:40:10,15.0640623,0.0001442,53.055,188.6341,92.9473,267.1681,6.1677e-05,6.37e-06,0.0,0 STARLINK-3697,1 51962U 22025G   24041.81956874  .00000637  00000-0  61677-4 0  9990,2 51962  53.0550 188.6341 0001442  92.9473 267.1681 15.06406230107869,6925.329,95.592,548.193,546.196,0.0
51962.0,STARLINK-3697,PAYLOAD,2024-02-11 10:00:02,15.06395222,0.000126,53.0542,185.9506,114.5494,245.5626,-8.6468e-06,-4.1e-06,0.0,0 STARLINK-3697,1 51962U 22025G   24042.41669884 -.00000410  00000-0 -86468-5 0  9996,2 51962  53.0542 185.9506 0001260 114.5494 245.5626 15.06395222107952,6925.363,95.592,548.101,546.356,0.0
51962.0,STARLINK-3697,PAYLOAD,2024-02-11 14:46:39,15.06400858,0.0001422,53.0546,185.057,113.5994,246.5145,8.8483e-06,-1.5e-06,0.0,0 STARLINK-3697,1 51962U 22025G   24042.61573481 -.00000150  00000-0  88483-5 0  9994,2 51962  53.0546 185.0570 0001422 113.5994 246.5145 15.06400858106871,6925.346,95.592,548.196,546.226,0.0
51962.0,STARLINK-3697,PAYLOAD,2024-02-11 16:22:11,15.06400706,0.0001539,53.0556,184.7624,105.2765,254.8394,5.3296e-05,5.12e-06,0.0,0 STARLINK-3697,1 51962U 22025G   24042.68208161  .00000512  00000-0  53296-4 0  9995,2 51962  53.0556 184.7624 0001539 105.2765 254.8394 15.06400706107995,6925.346,95.592,548.277,546.146,0.0
51962.0,STARLINK-3697,PAYLOAD,2024-02-12 14:39:45,15.06402782,0.0001496,53.0554,180.594,105.0628,255.0527,1.4494e-05,-6.6e-07,0.0,0 STARLINK-3697,1 51962U 22025G   24043.61093792 -.00000066  00000-0  14494-4 0  9993,2 51962  53.0554 180.5940 0001496 105.0628 255.0527 15.06402782107027,6925.34,95.592,548.241,546.169,0.0
51962.0,STARLINK-3697,PAYLOAD,2024-02-12 16:15:17,15.06404252,0.0001618,53.0554,180.2962,117.7935,242.3218,1.4875e-05,-6e-07,0.0,0 STARLINK-3697,1 51962U 22025G   24043.67728307 -.00000060  00000-0  14875-4 0  9993,2 51962  53.0554 180.2962 0001618 117.7935 242.3218 15.06404252107036,6925.336,95.592,548.321,546.08,0.0
51962.0,STARLINK-3697,PAYLOAD,2024-02-13 14:32:51,15.06395147,0.0001606,53.0565,176.1277,107.2413,252.8752,-3.0071e-05,-7.29e-06,0.0,0 STARLINK-3697,1 51962U 22025G   24044.60615022 -.00000729  00000-0 -30071-4 0  9995,2 51962  53.0565 176.1277 0001606 107.2413 252.8752 15.06395147107179,6925.363,95.592,548.341,546.116,0.0
51962.0,STARLINK-3697,PAYLOAD,2024-02-13 16:08:23,15.06395163,0.0001765,53.0552,175.8286,73.4127,286.7056,-5.4435e-06,-3.63e-06,0.0,0 STARLINK-3697,1 51962U 22025G   24044.67249878 -.00000363  00000-0 -54435-5 0  9999,2 51962  53.0552 175.8286 0001765  73.4127 286.7056 15.06395163108298,6925.363,95.592,548.451,546.006,0.0
51962.0,STARLINK-3697,PAYLOAD,2024-02-14 14:25:56,15.0640006,0.0001555,53.0553,171.6589,95.6548,264.4619,9.6928e-05,1.163e-05,0.0,0 STARLINK-3697,1 51962U 22025G   24045.60134820  .00001163  00000-0  96928-4 0  9992,2 51962  53.0553 171.6589 0001555  95.6548 264.4619 15.06400060107323,6925.348,95.592,548.29,546.136,0.0
51962.0,STARLINK-3697,PAYLOAD,2024-02-14 17:37:00,15.06406625,0.0001545,53.054,171.0619,97.464,262.6524,0.00014086,1.818e-05,0.0,0 STARLINK-3697,1 51962U 22025G   24045.73403644  .00001818  00000-0  14086-3 0  9990,2 51962  53.0540 171.0619 0001545  97.4640 262.6524 15.06406625108452,6925.328,95.592,548.263,546.123,0.0
